TWILIGHT B              
1 67364U 26004B   26033.55023911  .00006049  00000+0  67869-3 0  9995
2 67364  97.7994  34.3234 0007746 209.5714 150.5065 14.87129930  3272
TWILIGHT C              
1 67365U 26004C   26033.48264627  .00006012  00000+0  67435-3 0  9998
2 67365  97.7970  34.2546 0007346 215.3402 144.7328 14.87147567  3269
TWILIGHT D              
1 67366U 26004D   26033.54962059  .00004211  00000+0  47446-3 0  9999
2 67366  97.8027  34.3284 0007953 203.1345 156.9514 14.87123334  3278
TWILIGHT E              
1 67367U 26004E   26033.54825364  .00006184  00000+0  69132-3 0  9994
2 67367  97.7957  34.3212 0006810 216.6862 143.3888 14.87272121  3278
TWILIGHT F              
1 67368U 26004F   26033.54769584  .00006018  00000+0  67251-3 0  9992
2 67368  97.8018  34.3305 0007307 204.3952 155.6920 14.87299462  3277
TWILIGHT G              
1 67369U 26004G   26033.54704706  .00003417  00000+0  38485-3 0  9995
2 67369  97.7949  34.3221 0006231 218.7564 141.3205 14.87270660  3277
TWILIGHT H              
1 67370U 26004H   26033.54605105  .00006392  00000+0  71214-3 0  9992
2 67370  97.7946  34.3225 0005902 218.0266 142.0534 14.87407369  3277
TWILIGHT J              
1 67371U 26004J   26033.60813708  .00007337  00000+0  80841-3 0  9996
2 67371  97.7987  34.4010 0005245 199.8473 160.2541 14.87813435  3288
TWILIGHT K              
1 67372U 26004K   26033.60400022  .00003057  00000+0  33927-3 0  9996
2 67372  97.7967  34.4025 0003607 193.4004 166.7117 14.87964817  3284
TWILIGHT L              
1 67373U 26004L   26033.60981012  .00003143  00000+0  35194-3 0  9994
2 67373  97.7981  34.3977 0005129 206.5297 153.5658 14.87569964  3285
TWILIGHT M              
1 67374U 26004M   26033.60493087  .00003696  00000+0  40929-3 0  9990
2 67374  97.7965  34.4000 0003903 194.2517 165.8590 14.87926228  3283
TWILIGHT N              
1 67375U 26004N   26033.60453882  .00002861  00000+0  31797-3 0  9996
2 67375  97.8002  34.4089 0004487 189.9380 170.1749 14.87948504  3287
