CCSDS_OMM_VERS = 2.0
CREATION_DATE  = 
ORIGINATOR     = 

OBJECT_NAME    = TWILIGHT B
OBJECT_ID      = 2026-004B
CENTER_NAME    = EARTH
REF_FRAME      = TEME
TIME_SYSTEM    = UTC
MEAN_ELEMENT_THEORY = SGP/SGP4

EPOCH          = 2026-02-02T13:12:20.659104
MEAN_MOTION    = 14.87129930
ECCENTRICITY   = .0007746
INCLINATION    = 97.7994
RA_OF_ASC_NODE = 34.3234
ARG_OF_PERICENTER = 209.5714
MEAN_ANOMALY   = 150.5065

EPHEMERIS_TYPE = 0
CLASSIFICATION_TYPE = U
NORAD_CAT_ID   = 67364
ELEMENT_SET_NO = 999
REV_AT_EPOCH   = 327
BSTAR          = .67868644E-3
MEAN_MOTION_DOT = .6049E-4
MEAN_MOTION_DDOT = 0

CCSDS_OMM_VERS = 2.0
CREATION_DATE  = 
ORIGINATOR     = 

OBJECT_NAME    = TWILIGHT C
OBJECT_ID      = 2026-004C
CENTER_NAME    = EARTH
REF_FRAME      = TEME
TIME_SYSTEM    = UTC
MEAN_ELEMENT_THEORY = SGP/SGP4

EPOCH          = 2026-02-02T11:35:00.637728
MEAN_MOTION    = 14.87147567
ECCENTRICITY   = .00073463
INCLINATION    = 97.7970
RA_OF_ASC_NODE = 34.2546
ARG_OF_PERICENTER = 215.3402
MEAN_ANOMALY   = 144.7328

EPHEMERIS_TYPE = 0
CLASSIFICATION_TYPE = U
NORAD_CAT_ID   = 67365
ELEMENT_SET_NO = 999
REV_AT_EPOCH   = 326
BSTAR          = .67435177E-3
MEAN_MOTION_DOT = .6012E-4
MEAN_MOTION_DDOT = 0

CCSDS_OMM_VERS = 2.0
CREATION_DATE  = 
ORIGINATOR     = 

OBJECT_NAME    = TWILIGHT D
OBJECT_ID      = 2026-004D
CENTER_NAME    = EARTH
REF_FRAME      = TEME
TIME_SYSTEM    = UTC
MEAN_ELEMENT_THEORY = SGP/SGP4

EPOCH          = 2026-02-02T13:11:27.218976
MEAN_MOTION    = 14.87123334
ECCENTRICITY   = .00079534
INCLINATION    = 97.8027
RA_OF_ASC_NODE = 34.3284
ARG_OF_PERICENTER = 203.1345
MEAN_ANOMALY   = 156.9514

EPHEMERIS_TYPE = 0
CLASSIFICATION_TYPE = U
NORAD_CAT_ID   = 67366
ELEMENT_SET_NO = 999
REV_AT_EPOCH   = 327
BSTAR          = .47445921E-3
MEAN_MOTION_DOT = .4211E-4
MEAN_MOTION_DDOT = 0

CCSDS_OMM_VERS = 2.0
CREATION_DATE  = 
ORIGINATOR     = 

OBJECT_NAME    = TWILIGHT E
OBJECT_ID      = 2026-004E
CENTER_NAME    = EARTH
REF_FRAME      = TEME
TIME_SYSTEM    = UTC
MEAN_ELEMENT_THEORY = SGP/SGP4

EPOCH          = 2026-02-02T13:09:29.114496
MEAN_MOTION    = 14.87272121
ECCENTRICITY   = .00068102
INCLINATION    = 97.7957
RA_OF_ASC_NODE = 34.3212
ARG_OF_PERICENTER = 216.6862
MEAN_ANOMALY   = 143.3888

EPHEMERIS_TYPE = 0
CLASSIFICATION_TYPE = U
NORAD_CAT_ID   = 67367
ELEMENT_SET_NO = 999
REV_AT_EPOCH   = 327
BSTAR          = .69131509E-3
MEAN_MOTION_DOT = .6184E-4
MEAN_MOTION_DDOT = 0

CCSDS_OMM_VERS = 2.0
CREATION_DATE  = 
ORIGINATOR     = 

OBJECT_NAME    = TWILIGHT F
OBJECT_ID      = 2026-004F
CENTER_NAME    = EARTH
REF_FRAME      = TEME
TIME_SYSTEM    = UTC
MEAN_ELEMENT_THEORY = SGP/SGP4

EPOCH          = 2026-02-02T13:08:40.920576
MEAN_MOTION    = 14.87299462
ECCENTRICITY   = .00073076
INCLINATION    = 97.8018
RA_OF_ASC_NODE = 34.3305
ARG_OF_PERICENTER = 204.3952
MEAN_ANOMALY   = 155.6920

EPHEMERIS_TYPE = 0
CLASSIFICATION_TYPE = U
NORAD_CAT_ID   = 67368
ELEMENT_SET_NO = 999
REV_AT_EPOCH   = 327
BSTAR          = .67251408E-3
MEAN_MOTION_DOT = .6018E-4
MEAN_MOTION_DDOT = 0

CCSDS_OMM_VERS = 2.0
CREATION_DATE  = 
ORIGINATOR     = 

OBJECT_NAME    = TWILIGHT G
OBJECT_ID      = 2026-004G
CENTER_NAME    = EARTH
REF_FRAME      = TEME
TIME_SYSTEM    = UTC
MEAN_ELEMENT_THEORY = SGP/SGP4

EPOCH          = 2026-02-02T13:07:44.865984
MEAN_MOTION    = 14.87270660
ECCENTRICITY   = .0006231
INCLINATION    = 97.7949
RA_OF_ASC_NODE = 34.3221
ARG_OF_PERICENTER = 218.7564
MEAN_ANOMALY   = 141.3205

EPHEMERIS_TYPE = 0
CLASSIFICATION_TYPE = U
NORAD_CAT_ID   = 67369
ELEMENT_SET_NO = 999
REV_AT_EPOCH   = 327
BSTAR          = .38484574E-3
MEAN_MOTION_DOT = .3417E-4
MEAN_MOTION_DDOT = 0

CCSDS_OMM_VERS = 2.0
CREATION_DATE  = 
ORIGINATOR     = 

OBJECT_NAME    = TWILIGHT H
OBJECT_ID      = 2026-004H
CENTER_NAME    = EARTH
REF_FRAME      = TEME
TIME_SYSTEM    = UTC
MEAN_ELEMENT_THEORY = SGP/SGP4

EPOCH          = 2026-02-02T13:06:18.810720
MEAN_MOTION    = 14.87407369
ECCENTRICITY   = .00059029
INCLINATION    = 97.7946
RA_OF_ASC_NODE = 34.3225
ARG_OF_PERICENTER = 218.0266
MEAN_ANOMALY   = 142.0534

EPHEMERIS_TYPE = 0
CLASSIFICATION_TYPE = U
NORAD_CAT_ID   = 67370
ELEMENT_SET_NO = 999
REV_AT_EPOCH   = 327
BSTAR          = .7121389E-3
MEAN_MOTION_DOT = .6392E-4
MEAN_MOTION_DDOT = 0

CCSDS_OMM_VERS = 2.0
CREATION_DATE  = 
ORIGINATOR     = 

OBJECT_NAME    = TWILIGHT J
OBJECT_ID      = 2026-004J
CENTER_NAME    = EARTH
REF_FRAME      = TEME
TIME_SYSTEM    = UTC
MEAN_ELEMENT_THEORY = SGP/SGP4

EPOCH          = 2026-02-02T14:35:43.043712
MEAN_MOTION    = 14.87813435
ECCENTRICITY   = .00052455
INCLINATION    = 97.7987
RA_OF_ASC_NODE = 34.4010
ARG_OF_PERICENTER = 199.8473
MEAN_ANOMALY   = 160.2541

EPHEMERIS_TYPE = 0
CLASSIFICATION_TYPE = U
NORAD_CAT_ID   = 67371
ELEMENT_SET_NO = 999
REV_AT_EPOCH   = 328
BSTAR          = .80840556E-3
MEAN_MOTION_DOT = .7337E-4
MEAN_MOTION_DDOT = 0

CCSDS_OMM_VERS = 2.0
CREATION_DATE  = 
ORIGINATOR     = 

OBJECT_NAME    = TWILIGHT K
OBJECT_ID      = 2026-004K
CENTER_NAME    = EARTH
REF_FRAME      = TEME
TIME_SYSTEM    = UTC
MEAN_ELEMENT_THEORY = SGP/SGP4

EPOCH          = 2026-02-02T14:29:45.619008
MEAN_MOTION    = 14.87964817
ECCENTRICITY   = .00036071
INCLINATION    = 97.7967
RA_OF_ASC_NODE = 34.4025
ARG_OF_PERICENTER = 193.4004
MEAN_ANOMALY   = 166.7117

EPHEMERIS_TYPE = 0
CLASSIFICATION_TYPE = U
NORAD_CAT_ID   = 67372
ELEMENT_SET_NO = 999
REV_AT_EPOCH   = 328
BSTAR          = .33927022E-3
MEAN_MOTION_DOT = .3057E-4
MEAN_MOTION_DDOT = 0

CCSDS_OMM_VERS = 2.0
CREATION_DATE  = 
ORIGINATOR     = 

OBJECT_NAME    = TWILIGHT L
OBJECT_ID      = 2026-004L
CENTER_NAME    = EARTH
REF_FRAME      = TEME
TIME_SYSTEM    = UTC
MEAN_ELEMENT_THEORY = SGP/SGP4

EPOCH          = 2026-02-02T14:38:07.594368
MEAN_MOTION    = 14.87569964
ECCENTRICITY   = .00051299
INCLINATION    = 97.7981
RA_OF_ASC_NODE = 34.3977
ARG_OF_PERICENTER = 206.5297
MEAN_ANOMALY   = 153.5658

EPHEMERIS_TYPE = 0
CLASSIFICATION_TYPE = U
NORAD_CAT_ID   = 67373
ELEMENT_SET_NO = 999
REV_AT_EPOCH   = 328
BSTAR          = .35194324E-3
MEAN_MOTION_DOT = .3143E-4
MEAN_MOTION_DDOT = 0

CCSDS_OMM_VERS = 2.0
CREATION_DATE  = 
ORIGINATOR     = 

OBJECT_NAME    = TWILIGHT M
OBJECT_ID      = 2026-004M
CENTER_NAME    = EARTH
REF_FRAME      = TEME
TIME_SYSTEM    = UTC
MEAN_ELEMENT_THEORY = SGP/SGP4

EPOCH          = 2026-02-02T14:31:06.027168
MEAN_MOTION    = 14.87926228
ECCENTRICITY   = .00039037
INCLINATION    = 97.7965
RA_OF_ASC_NODE = 34.4000
ARG_OF_PERICENTER = 194.2517
MEAN_ANOMALY   = 165.8590

EPHEMERIS_TYPE = 0
CLASSIFICATION_TYPE = U
NORAD_CAT_ID   = 67374
ELEMENT_SET_NO = 999
REV_AT_EPOCH   = 328
BSTAR          = .40928814E-3
MEAN_MOTION_DOT = .3696E-4
MEAN_MOTION_DDOT = 0

CCSDS_OMM_VERS = 2.0
CREATION_DATE  = 
ORIGINATOR     = 

OBJECT_NAME    = TWILIGHT N
OBJECT_ID      = 2026-004N
CENTER_NAME    = EARTH
REF_FRAME      = TEME
TIME_SYSTEM    = UTC
MEAN_ELEMENT_THEORY = SGP/SGP4

EPOCH          = 2026-02-02T14:30:32.154048
MEAN_MOTION    = 14.87948504
ECCENTRICITY   = .0004487
INCLINATION    = 97.8002
RA_OF_ASC_NODE = 34.4089
ARG_OF_PERICENTER = 189.9380
MEAN_ANOMALY   = 170.1749

EPHEMERIS_TYPE = 0
CLASSIFICATION_TYPE = U
NORAD_CAT_ID   = 67375
ELEMENT_SET_NO = 999
REV_AT_EPOCH   = 328
BSTAR          = .31796941E-3
MEAN_MOTION_DOT = .2861E-4
MEAN_MOTION_DDOT = 0

